{"type":"FeatureCollection","features":[{"type":"Feature","id":0,"geometry":{"type":"Polygon","coordinates":[[[-73.64495720107584,4.513753520203295],[-73.644967521669571,4.5138574086352028],[-73.645823334248973,4.5154769569104465],[-73.648922141571973,4.5148978713139059],[-73.647889348289084,4.5120601851750166],[-73.648269554480748,4.5100460750268203],[-73.648311486575778,4.50972933040714],[-73.648119545149029,4.5094332289624495],[-73.648296837368775,4.5089581611211997],[-73.647887644472348,4.5082275112034154],[-73.647936141444291,4.5077945197207328],[-73.648092148840249,4.5067538106766269],[-73.647448213168275,4.5065917440001044],[-73.646510827258567,4.5061599092070992],[-73.646377081297715,4.5066988225656806],[-73.646403208318532,4.5071026587046381],[-73.646183923095123,4.5076440523213241],[-73.645496016727861,4.5083040548742028],[-73.645111242927669,4.5088282287059656],[-73.645098527268999,4.5093797787833978],[-73.64513341078009,4.5094958558440803],[-73.64513125167673,4.5098710326869309],[-73.645111095519269,4.5102967132231129],[-73.645105945926332,4.51059386814046],[-73.644916003072012,4.5106987554370344],[-73.644910999216791,4.510707221543953],[-73.644937722397458,4.5107807713546322],[-73.645022105698501,4.5108921971915379],[-73.645079592893069,4.5109152149580609],[-73.645140820027109,4.5108344191064598],[-73.645140663959751,4.5106575562313651],[-73.645167339552358,4.5104960487446979],[-73.645305185051541,4.5104113395270815],[-73.645400935597081,4.5103804959380787],[-73.645512082675623,4.5104303800791854],[-73.64561165456621,4.5103879981875821],[-73.64569186343482,4.5101110979300065],[-73.64578388854909,4.5101994480282315],[-73.64578783214921,4.510326323648143],[-73.645776430119042,4.5104301449735544],[-73.645688382515686,4.510507120365105],[-73.645688464007776,4.5105993965988773],[-73.645822519565058,4.510560828359587],[-73.645929709470636,4.510468456687704],[-73.645975573846044,4.510345381110028],[-73.645925592618994,4.5101454937440053],[-73.645852709803648,4.5100417483083106],[-73.64572245192511,4.5100418641731599],[-73.645588376082856,4.5100573626435789],[-73.64559211506571,4.5099535481313637],[-73.645576753377782,4.5099112684445686],[-73.645603500152674,4.5098305032298063],[-73.645557432075179,4.5097228886475014],[-73.645476920221256,4.5096575980286957],[-73.645373443128676,4.5096153966640031],[-73.645246944706741,4.5095347667482883],[-73.645269815874371,4.5094040220186002],[-73.645338701657636,4.5093193741007553],[-73.645438300565957,4.5093077516024209],[-73.645564703930631,4.509280725121414],[-73.64554547679154,4.5091999998762731],[-73.645484103902675,4.5091154686434152],[-73.645606659630459,4.5090692210845864],[-73.645759785018925,4.5089345152752003],[-73.645870799466479,4.5088344506233966],[-73.646150399309761,4.508753460473315],[-73.646338151686905,4.5087840518608573],[-73.646472273938571,4.5088223814626076],[-73.646587089199727,4.5086877096100579],[-73.646583145510135,4.5085608331025355],[-73.646533235679044,4.508441687131608],[-73.64649864678114,4.5083186831612352],[-73.646456419527283,4.5082226000947108],[-73.646628765888011,4.5081609288422442],[-73.6467282762178,4.5080493394567034],[-73.64688905993097,4.507910782291674],[-73.646823778222142,4.5077378227194913],[-73.646746999477614,4.507561028112093],[-73.646750688254087,4.5073995410857037],[-73.646758183865586,4.5072111374665838],[-73.64670825374202,4.5070689226643594],[-73.646731063459697,4.5068689705341285],[-73.646765424600915,4.5067343703092888],[-73.646834292990491,4.5066304978276435],[-73.646964594423309,4.5066803647659412],[-73.64706794964502,4.5065841520778349],[-73.647106324929041,4.506657169699622],[-73.64710644733168,4.5067955844784819],[-73.647118056598458,4.5069262985049363],[-73.647187236909474,4.5071761516390429],[-73.647237139922368,4.5072876079573234],[-73.647325344374394,4.5073874952649922],[-73.647409744544689,4.5075181444082091],[-73.647406032100776,4.5076527173334853],[-73.647318025812638,4.5077758305087627],[-73.647249201635987,4.5079296859489659],[-73.647084698705044,4.5081951265059956],[-73.647061796365904,4.5082912675524085],[-73.647103999891101,4.5083604373924118],[-73.647069612473388,4.5084642791922533],[-73.647054399495687,4.50859117184865],[-73.646985508090836,4.5086681302823877],[-73.646832303908695,4.5087144053509851],[-73.646731059587864,4.5087608739385132],[-73.646767082490726,4.5088809924392876],[-73.646922817311861,4.5089889906892608],[-73.6470366762656,4.5091270624992603],[-73.64692907503769,4.5092953706240442],[-73.64710269389775,4.5093192458547255],[-73.647312181590621,4.5092890219452775],[-73.647551567304276,4.5092227250615897],[-73.647617452079601,4.5092647189099457],[-73.647581620516462,4.5093608724010323],[-73.647527878475159,4.5095111089831335],[-73.647659556738461,4.5094929688668799],[-73.647755372420647,4.5095349369046298],[-73.647671736774043,4.5097272536717696],[-73.647671821907181,4.5098233742227194],[-73.647755686386631,4.5098893828449604],[-73.647977130749211,4.5098411244791237],[-73.648066991719077,4.5099191431259564],[-73.647953345380074,4.5100213724369951],[-73.64791751916357,4.5101235331927683],[-73.647833904808977,4.5103398807944473],[-73.647732279721424,4.5104961673767434],[-73.647666655587273,4.5107485442651978],[-73.6477745548749,4.5109166593011878],[-73.647828600364505,4.5111088532148065],[-73.647810812339571,4.5113011112368895],[-73.647745134965476,4.5114934120010162],[-73.647757272562558,4.511679636058374],[-73.64775140917925,4.5118178154185671],[-73.647703668871713,4.5119860693404803],[-73.647530283553635,4.512226526986467],[-73.647296850805446,4.5122567733404821],[-73.647129153239518,4.5121608013743071],[-73.647098977589451,4.5118844809011307],[-73.646919441396847,4.5119387089931706],[-73.646853769060101,4.5121370169676993],[-73.646716379982308,4.512467555755336],[-73.646674647413079,4.5126598351303073],[-73.646572973063428,4.5127620545413833],[-73.64650132537264,4.5129723832478135],[-73.646513457418394,4.513152599203238],[-73.646699139291911,4.5132785924469658],[-73.646675381098191,4.5134888784778582],[-73.646615614711436,4.5135970678072113],[-73.646507911863466,4.5136512318280202],[-73.646352287604998,4.5136693931809759],[-73.646017036317403,4.513639654615929],[-73.645825394234919,4.5135437036956887],[-73.645663837200573,4.5136219463826706],[-73.645544209427214,4.5137301889236596],[-73.645221042108176,4.5138265970971929],[-73.645131149024792,4.5137125337026873],[-73.64495720107584,4.513753520203295]]]},"properties":{"FID":0,"Id":3,"Zonifica":"Conservacion","Area_ha":16.988899230957031}},{"type":"Feature","id":1,"geometry":{"type":"Polygon","coordinates":[[[-73.644120226868324,4.5119729758307585],[-73.644168736720815,4.5119964248168003],[-73.644245332490698,4.5119655983475573],[-73.644310366721072,4.5118578850454583],[-73.644467368516189,4.5117731589318737],[-73.644578373373406,4.5116615604322305],[-73.644624258377632,4.5115615528319486],[-73.64465478847211,4.5114269569446606],[-73.644700660793433,4.5113115701174147],[-73.644629852960861,4.5111828924078736],[-73.644610051653672,4.5112242372626943],[-73.644120226868324,4.5119729758307585]]]},"properties":{"FID":1,"Id":3,"Zonifica":"Conservacion","Area_ha":0.16589300334453583}},{"type":"Feature","id":2,"geometry":{"type":"Polygon","coordinates":[[[-73.644938580698067,4.5136514206641891],[-73.644948989056445,4.5136708611366885],[-73.64495720107584,4.513753520203295],[-73.645131149024792,4.5137125337026873],[-73.645221042108176,4.5138265970971929],[-73.645544209427214,4.5137301889236596],[-73.645663837200573,4.5136219463826706],[-73.645825394234919,4.5135437036956887],[-73.646017036317403,4.513639654615929],[-73.646352287604998,4.5136693931809759],[-73.646507911863466,4.5136512318280202],[-73.646615614711436,4.5135970678072113],[-73.646675381098191,4.5134888784778582],[-73.646699139291911,4.5132785924469658],[-73.646513457418394,4.513152599203238],[-73.646501326667988,4.5129723859699311],[-73.646447228886871,4.5128586965035415],[-73.646081441089223,4.5130905051304353],[-73.645901568200543,4.513305976341087],[-73.64573302837357,4.5133407300974113],[-73.64549166650562,4.513340944886977],[-73.645435246503268,4.5134166369470563],[-73.645386729804102,4.5135631411976078],[-73.645234583989748,4.5136420188642878],[-73.644938580698067,4.5136514206641891]]]},"properties":{"FID":2,"Id":5,"Zonifica":"Restauracion","Area_ha":0.80088597536087036}},{"type":"Feature","id":3,"geometry":{"type":"Polygon","coordinates":[[[-73.645190849240507,4.5112993160052648],[-73.645191035262258,4.5112996004011663],[-73.645248685398599,4.5115071706281604],[-73.645214354413952,4.511676374539328],[-73.645294872383488,4.5117493547668559],[-73.645494050475634,4.5117030390328674],[-73.645620556120079,4.511791358453447],[-73.645624482759729,4.5118990104977241],[-73.645647540666957,4.5119797314102907],[-73.645670625753439,4.5120912116680776],[-73.645724421687234,4.5122718711438914],[-73.645923705212851,4.5123447455886803],[-73.646228076675968,4.5123981531009987],[-73.64647062938819,4.5116845380575343],[-73.646545314764509,4.5115248954938476],[-73.646937856871133,4.5111866198441923],[-73.647068636788717,4.5109987669871954],[-73.646909389152484,4.5107266909543959],[-73.646815648293227,4.5104921041246131],[-73.646918244694632,4.5101634732925735],[-73.646796435863905,4.5099195250028803],[-73.646908409190402,4.5096190469923929],[-73.646929075229863,4.5092953676136203],[-73.6470366762656,4.5091270624992683],[-73.646922817311875,4.5089889906892511],[-73.646767082490697,4.5088809924393045],[-73.646731059587864,4.5087608739385541],[-73.646832303908695,4.5087144053510029],[-73.646985508090836,4.5086681302824081],[-73.647054399495687,4.5085911718486749],[-73.647069612473373,4.5084642791922613],[-73.647103999891101,4.5083604373924313],[-73.647061796365904,4.5082912675524174],[-73.647084698705044,4.5081951265059983],[-73.647249201635987,4.5079296859489686],[-73.647318025812638,4.5077758305087716],[-73.647406032100776,4.5076527173334888],[-73.647409744544674,4.5075181444082135],[-73.64732534437438,4.5073874952649984],[-73.647237139922368,4.507287607957319],[-73.647187236909474,4.5071761516390518],[-73.647118056598458,4.5069262985049585],[-73.647106447331666,4.5067955844784793],[-73.647106324929027,4.5066571696996363],[-73.64706794964502,4.5065841520778562],[-73.646964594423309,4.5066803647659732],[-73.646834292990476,4.5066304978276577],[-73.646765424600915,4.5067343703093075],[-73.646731063459683,4.5068689705341534],[-73.64670825374202,4.5070689226643683],[-73.646758183865586,4.5072111374665873],[-73.646750688254087,4.5073995410857188],[-73.6467469994776,4.5075610281120841],[-73.646823778222128,4.5077378227194869],[-73.64688905993097,4.5079107822916979],[-73.6467282762178,4.5080493394567016],[-73.646628765887996,4.5081609288422735],[-73.646456419527269,4.5082226000947303],[-73.646498646781112,4.5083186831612228],[-73.646533235679044,4.508441687131632],[-73.646583145510135,4.5085608331025302],[-73.646587089199713,4.5086877096100597],[-73.646472273938556,4.5088223814625854],[-73.646338151686905,4.5087840518608768],[-73.646150399309761,4.508753460473315],[-73.645870799466493,4.5088344506233895],[-73.645759785018925,4.5089345152752056],[-73.645606659630445,4.5090692210845944],[-73.645484103902675,4.5091154686434241],[-73.645545476791526,4.5091999998762526],[-73.645564703930617,4.5092807251214353],[-73.645438300565957,4.5093077516024183],[-73.645338701657622,4.5093193741007678],[-73.645269815874357,4.5094040220186029],[-73.645246944706741,4.5095347667483008],[-73.645373443128662,4.509615396663996],[-73.645476920221256,4.5096575980287179],[-73.645557432075165,4.5097228886475227],[-73.64560350015266,4.5098305032298196],[-73.645576753377782,4.5099112684445704],[-73.64559211506571,4.5099535481313762],[-73.645588376082856,4.5100573626435905],[-73.645722451925096,4.5100418641731848],[-73.645852709803648,4.5100417483083035],[-73.64592559261898,4.5101454937439973],[-73.645975573993908,4.5103453780970151],[-73.645968717705486,4.5104850745176703],[-73.645847354611504,4.5106188969417831],[-73.645804397570586,4.5107880451852491],[-73.64573406133195,4.5110162089187771],[-73.645655832355089,4.5111814554936824],[-73.645483482934367,4.5112681303248001],[-73.645299319205947,4.5112879574936198],[-73.645190849240507,4.5112993160052648]]]},"properties":{"FID":3,"Id":5,"Zonifica":"Restauracion","Area_ha":6.2656397819519043}},{"type":"Feature","id":4,"geometry":{"type":"Polygon","coordinates":[[[-73.644569696346309,4.5123953298376032],[-73.644613650479641,4.5124126148311348],[-73.644710926664345,4.5123920568374283],[-73.644709208125334,4.5122251229893777],[-73.644555371203012,4.5121654151071757],[-73.644569696346309,4.5123953298376032]]]},"properties":{"FID":4,"Id":4,"Zonifica":"Infraestructura","Area_ha":0.037224598228931427}},{"type":"Feature","id":5,"geometry":{"type":"Polygon","coordinates":[[[-73.644803423146357,4.5122943318113471],[-73.644748518101835,4.5123148539670401],[-73.644748561170786,4.5123636739973563],[-73.644885140133852,4.5124249747897229],[-73.644974423704241,4.5122422104443558],[-73.644864534427199,4.5121934871343683],[-73.644803423146357,4.5122943318113471]]]},"properties":{"FID":5,"Id":4,"Zonifica":"Infraestructura","Area_ha":0.03445969894528389}},{"type":"Feature","id":6,"geometry":{"type":"Polygon","coordinates":[[[-73.644808404343053,4.5127153043156341],[-73.644936039410709,4.5128677573018754],[-73.645019353052135,4.5128086239059257],[-73.644933392482983,4.5126462934620681],[-73.644808404343053,4.5127153043156341]]]},"properties":{"FID":6,"Id":4,"Zonifica":"Infraestructura","Area_ha":0.028507299721240997}},{"type":"Feature","id":7,"geometry":{"type":"Polygon","coordinates":[[[-73.644859120298406,4.511836789430447],[-73.64486910578853,4.5120385576830699],[-73.645045614325852,4.512001492086255],[-73.645047918519026,4.511836621644477],[-73.644859120298406,4.511836789430447]]]},"properties":{"FID":7,"Id":4,"Zonifica":"Infraestructura","Area_ha":0.041169099509716034}},{"type":"Feature","id":8,"geometry":{"type":"Polygon","coordinates":[[[-73.64551443575391,4.5130948550904577],[-73.64552609934816,4.5132870869347812],[-73.645690820197956,4.5132638725423817],[-73.645679167770822,4.5130870188894505],[-73.64551443575391,4.5130948550904577]]]},"properties":{"FID":8,"Id":4,"Zonifica":"Infraestructura","Area_ha":0.037518598139286041}},{"type":"Feature","id":9,"geometry":{"type":"Polygon","coordinates":[[[-73.644308713204083,4.5124746197824495],[-73.644938580698067,4.5136514206642051],[-73.645234583989748,4.5136420188643029],[-73.645386729804102,4.5135631411976318],[-73.645435246503254,4.5134166369470528],[-73.64549166650562,4.5133409448870019],[-73.645733028373542,4.5133407300974353],[-73.645901568200529,4.5133059763410976],[-73.646081441089223,4.5130905051304513],[-73.646447228886871,4.5128586965035824],[-73.646228076675968,4.5123981531009987],[-73.645923705212851,4.5123447455886803],[-73.645724421687234,4.5122718711438914],[-73.645670625753439,4.5120912116680776],[-73.645647540666957,4.5119797314102907],[-73.645624482759729,4.5118990104977241],[-73.645620556120079,4.511791358453447],[-73.645494050475634,4.5117030390328674],[-73.645294872383488,4.5117493547668559],[-73.645214354413952,4.511676374539328],[-73.645248685398599,4.5115071706281604],[-73.645191035262258,4.5112996004011663],[-73.645190849240507,4.5112993160052648],[-73.645185685388043,4.5112998567414069],[-73.645060354416287,4.5113786245019876],[-73.644982111369046,4.5115281397698954],[-73.644895992090142,4.511634401258128],[-73.644860775681877,4.5116934245972589],[-73.644856936464706,4.5117838816965667],[-73.644782511749952,4.5118193425094129],[-73.64472771153919,4.5118901814726025],[-73.644622077765291,4.5120869148718814],[-73.644570745559136,4.5121713822735563],[-73.64470920812532,4.5122251229893946],[-73.644710926664345,4.5123920568374318],[-73.644613650479641,4.5124126148311587],[-73.644569696346309,4.5123953298376289],[-73.644557138105014,4.5121937734022826],[-73.644535990490112,4.5122285718962774],[-73.64447730935386,4.5123426741664385],[-73.644312835683337,4.5124726025587742],[-73.644308713204083,4.5124746197824495]],[[-73.644808404343038,4.5127153043156589],[-73.644933392482969,4.5126462934620699],[-73.645019353052135,4.5128086239059675],[-73.644936039410695,4.5128677573019127],[-73.644808404343038,4.5127153043156589]],[[-73.645514435753896,4.5130948550904613],[-73.645679167770822,4.5130870188894647],[-73.645690820197942,4.5132638725424039],[-73.64552609934816,4.5132870869347945],[-73.645514435753896,4.5130948550904613]],[[-73.644974423704241,4.5122422104443531],[-73.644885140133837,4.5124249747897336],[-73.644748561170786,4.5123636739973882],[-73.644748518101835,4.5123148539670392],[-73.644803423146357,4.5122943318113542],[-73.644864534427199,4.5121934871343621],[-73.644974423704241,4.5122422104443531]],[[-73.645045614325838,4.5120014920862657],[-73.64486910578853,4.5120385576830717],[-73.64485912029842,4.5118367894304479],[-73.645047918519012,4.5118366216444814],[-73.645045614325838,4.5120014920862657]]]},"properties":{"FID":9,"Id":2,"Zonifica":"Amortiguacion","Area_ha":2.9887800216674805}},{"type":"Feature","id":10,"geometry":{"type":"Polygon","coordinates":[[[-73.647197916772768,4.5105865175339659],[-73.647209567057132,4.5107633700896486],[-73.647378105035045,4.5107247734904954],[-73.647374121447797,4.5105556019598225],[-73.647197916772768,4.5105865175339659]]]},"properties":{"FID":10,"Id":4,"Zonifica":"Infraestructura","Area_ha":0.03692229837179184}},{"type":"Feature","id":11,"geometry":{"type":"Polygon","coordinates":[[[-73.646228073715065,4.5123981525814534],[-73.646501326667988,4.5129723859699311],[-73.646572973063428,4.5127620545413833],[-73.646674647413079,4.5126598351303073],[-73.646716379982308,4.512467555755336],[-73.646853769060101,4.5121370169676993],[-73.646919441396847,4.5119387089931706],[-73.647098977589451,4.5118844809011307],[-73.647129153239518,4.5121608013743071],[-73.647296850805446,4.5122567733404821],[-73.647530283553635,4.512226526986467],[-73.647703668871713,4.5119860693404803],[-73.64775140917925,4.5118178154185671],[-73.647757272562558,4.511679636058374],[-73.647745134965476,4.5114934120010162],[-73.647810812339571,4.5113011112368895],[-73.647828600364505,4.5111088532148065],[-73.6477745548749,4.5109166593011878],[-73.647666655587273,4.5107485442651978],[-73.647732279721424,4.5104961673767434],[-73.647833904808977,4.5103398807944473],[-73.64791751916357,4.5101235331927683],[-73.647953345380074,4.5100213724369951],[-73.648066991719077,4.5099191431259564],[-73.647977130749211,4.5098411244791237],[-73.647755686386631,4.5098893828449604],[-73.647671821907181,4.5098233742227194],[-73.647671736774043,4.5097272536717696],[-73.647755372420647,4.5095349369046298],[-73.647659556738461,4.5094929688668799],[-73.647527878475159,4.5095111089831335],[-73.647581620516462,4.5093608724010323],[-73.647617452079601,4.5092647189099457],[-73.647551567304276,4.5092227250615897],[-73.647312181590621,4.5092890219452775],[-73.64710269389775,4.5093192458547255],[-73.646929075229878,4.5092953676136185],[-73.646908409190416,4.509619046992384],[-73.646796435863905,4.5099195250028847],[-73.646918244694632,4.5101634732925504],[-73.646815648293227,4.5104921041245802],[-73.646909389152484,4.5107266909543569],[-73.647068636788731,4.5109987669871998],[-73.646937856871148,4.5111866198441817],[-73.646545314764523,4.5115248954938352],[-73.646470629388205,4.5116845380575219],[-73.646228073715065,4.5123981525814534]],[[-73.647197916772768,4.5105865175339659],[-73.647374121447797,4.5105556019598225],[-73.647378105035045,4.5107247734904954],[-73.647209567057132,4.5107633700896486],[-73.647197916772768,4.5105865175339659]]]},"properties":{"FID":11,"Id":1,"Zonifica":"Agrosistema","Area_ha":3.7337501049041748}},{"type":"Feature","id":12,"geometry":{"type":"Polygon","coordinates":[[[-73.645975573993908,4.5103453780970151],[-73.645929709470622,4.5104684566877076],[-73.645822519565058,4.5105608283596048],[-73.645688464007776,4.5105993965988844],[-73.645688382515672,4.5105071203651406],[-73.645776430119042,4.5104301449735758],[-73.645787832149196,4.5103263236481448],[-73.64578388854909,4.5101994480282315],[-73.64569186343482,4.5101110979300048],[-73.64561165456621,4.5103879981876176],[-73.645512082675623,4.5104303800791916],[-73.645400935597053,4.5103804959380733],[-73.645305185051527,4.5104113395270815],[-73.645167339552344,4.5104960487446979],[-73.645140663959751,4.5106575562313784],[-73.645140820027109,4.5108344191064793],[-73.645079592893069,4.5109152149580645],[-73.645022104544751,4.5108921944060372],[-73.645087373821696,4.5110497777085472],[-73.645118145615513,4.5111881643800835],[-73.645190849240507,4.5112993160052648],[-73.645299319205947,4.5112879574936198],[-73.645483482934367,4.5112681303248001],[-73.645655832355089,4.5111814554936824],[-73.64573406133195,4.5110162089187771],[-73.645804397570586,4.5107880451852491],[-73.645847354611504,4.5106188969417831],[-73.645968717705486,4.5104850745176703],[-73.645975573993908,4.5103453780970151]]]},"properties":{"FID":12,"Id":5,"Zonifica":"No reserva","Area_ha":0.70673900842666626}},{"type":"Feature","id":13,"geometry":{"type":"Polygon","coordinates":[[[-73.645190849240507,4.5112993160052648],[-73.645118145615513,4.5111881643800835],[-73.645087373821696,4.5110497777085472],[-73.645022104544751,4.5108921944060372],[-73.644937722397458,4.5107807713546277],[-73.644910999216791,4.5107072215439485],[-73.644629852960847,4.5111828924078781],[-73.644700660793418,4.5113115701174209],[-73.644654788472096,4.5114269569446677],[-73.644624258377618,4.5115615528319548],[-73.644578373373406,4.5116615604322474],[-73.644467368516189,4.5117731589318799],[-73.644310366721072,4.5118578850454538],[-73.644245332490698,4.5119655983475786],[-73.644168736720815,4.5119964248168403],[-73.64412022686831,4.511972975830755],[-73.644076219780573,4.5120402443825469],[-73.644308713204083,4.5124746197824495],[-73.644312835683337,4.5124726025587742],[-73.64447730935386,4.5123426741664385],[-73.644535990490112,4.5122285718962774],[-73.644557138105014,4.5121937734022826],[-73.644555371203012,4.5121654151071864],[-73.644570745559136,4.5121713822735563],[-73.644622077765291,4.5120869148718814],[-73.64472771153919,4.5118901814726025],[-73.644782511749952,4.5118193425094129],[-73.644856936464706,4.5117838816965667],[-73.644860775681877,4.5116934245972589],[-73.644895992090142,4.511634401258128],[-73.644982111369046,4.5115281397698954],[-73.645060354416287,4.5113786245019876],[-73.645185685388043,4.5112998567414069],[-73.645190849240507,4.5112993160052648]]]},"properties":{"FID":13,"Id":2,"Zonifica":"No reserva","Area_ha":0.75014799833297729}}]}