{"type":"FeatureCollection","features":[{"type":"Feature","id":0,"geometry":{"type":"LineString","coordinates":[[-73.644842213050268,4.5012355719326216],[-73.644841,4.501201],[-73.644768999999997,4.501004],[-73.644767000000002,4.5009490000000003],[-73.644734999999997,4.5008809999999997],[-73.644561999999993,4.5006389999999996],[-73.644476999999995,4.5005920000000001],[-73.644429000000002,4.5005420000000003],[-73.644381999999993,4.5004799999999996],[-73.644329999999997,4.5004280000000003],[-73.644284999999996,4.5003760000000002],[-73.644265000000004,4.500324],[-73.644237000000004,4.5002659999999999],[-73.644215000000003,4.5002129999999996],[-73.644204999999999,4.5001550000000003],[-73.644208000000006,4.5000970000000002],[-73.644233,4.5000299999999998],[-73.644260000000003,4.4999770000000003],[-73.644305000000003,4.4999320000000003],[-73.644362000000001,4.4999200000000004],[-73.644431999999995,4.4998769999999997],[-73.644485000000003,4.4998240000000003],[-73.644537,4.4997689999999997],[-73.644589999999994,4.499727],[-73.644651999999994,4.4996749999999999],[-73.644711999999998,4.4996280000000004],[-73.644754000000006,4.4996029999999996],[-73.644808999999995,4.4995710000000004],[-73.644875999999996,4.4995310000000002],[-73.644932999999995,4.4994829999999997],[-73.645009999999999,4.4994699999999996],[-73.645083,4.4994519999999998],[-73.645150999999998,4.4994370000000004],[-73.645221000000006,4.4994100000000001],[-73.645296000000002,4.4993879999999997],[-73.645374000000004,4.4993600000000002],[-73.645441000000005,4.4993220000000003],[-73.645516000000001,4.4992850000000004],[-73.645557999999994,4.4992669999999997],[-73.645634999999999,4.4992400000000004],[-73.645702,4.499212],[-73.645764999999997,4.4991789999999998],[-73.645822999999993,4.4991560000000002],[-73.645871,4.4991390000000004],[-73.646018999999995,4.4989710000000001],[-73.646045999999998,4.4989330000000001],[-73.646079,4.4988950000000001],[-73.646162000000004,4.4987620000000001],[-73.646586999999997,4.4975990000000001],[-73.646557000000001,4.4975519999999998],[-73.646534000000003,4.4974990000000004],[-73.646478999999999,4.4972919999999998],[-73.646478999999999,4.4972339999999997],[-73.646489000000003,4.4971819999999996],[-73.646511000000004,4.497115],[-73.646534000000003,4.497052],[-73.646556000000004,4.4969939999999999],[-73.646563999999998,4.4969239999999999],[-73.646575999999996,4.4968510000000004],[-73.646557999999999,4.4967740000000003],[-73.646525999999994,4.4967009999999998],[-73.646561000000005,4.4966189999999999],[-73.646620999999996,4.496461],[-73.646646000000004,4.496416],[-73.646673000000007,4.4963680000000004],[-73.646692999999999,4.4962999999999997],[-73.646691000000004,4.4962479999999996],[-73.646722999999994,4.4962150000000003],[-73.646798000000004,4.4961650000000004],[-73.646862999999996,4.4961219999999997],[-73.646933000000004,4.4960800000000001],[-73.646987999999993,4.4960300000000002],[-73.647036,4.4959720000000001],[-73.647058000000001,4.4959290000000003],[-73.647077999999993,4.4958859999999996],[-73.647099999999995,4.4958159999999996],[-73.647126999999998,4.4957640000000003],[-73.647182000000001,4.4956909999999999],[-73.647219000000007,4.4956339999999999],[-73.647244000000001,4.4955689999999997],[-73.647266999999999,4.4955220000000002],[-73.647287000000006,4.4954739999999997],[-73.647306999999998,4.4954159999999996],[-73.647344000000004,4.4953479999999999],[-73.647389000000004,4.4952829999999997],[-73.647435999999999,4.4952300000000003],[-73.647487999999996,4.4951800000000004],[-73.647549999999995,4.4951220000000003],[-73.647582999999997,4.4950869999999998],[-73.647643000000002,4.4950200000000002],[-73.647675000000007,4.4949830000000004],[-73.647711999999999,4.4949399999999997],[-73.647769999999994,4.4948620000000004],[-73.647817000000003,4.4947990000000004],[-73.647874999999999,4.4947520000000001],[-73.647947000000002,4.494707],[-73.647999999999996,4.4946640000000002],[-73.648043000000001,4.4946169999999999],[-73.648105000000001,4.494567],[-73.648167999999998,4.4945149999999998],[-73.648228000000003,4.4944579999999998],[-73.648275999999996,4.4944129999999998],[-73.648313000000002,4.4943609999999996],[-73.648351000000005,4.4943229999999996],[-73.648379000000006,4.4942799999999998],[-73.648419000000004,4.494237],[-73.648464000000004,4.4941789999999999],[-73.648516000000001,4.4941209999999998],[-73.648562999999996,4.494059],[-73.648602999999994,4.4939970000000002],[-73.648640999999998,4.4939450000000001],[-73.648689000000005,4.4939049999999998],[-73.648713999999998,4.4938419999999999],[-73.648717000000005,4.4937820000000004],[-73.648752000000002,4.4937300000000002],[-73.648780000000002,4.4936569999999998],[-73.648826999999997,4.4936049999999996],[-73.648885000000007,4.4935580000000002],[-73.648922999999996,4.4935080000000003],[-73.648967999999996,4.4934750000000001],[-73.648981000000006,4.4934180000000001],[-73.648968999999994,4.4933329999999998],[-73.648987000000005,4.4932660000000002],[-73.649039000000002,4.4932239999999997],[-73.649082000000007,4.4931939999999999],[-73.649124999999998,4.4931660000000004],[-73.649158,4.4931289999999997],[-73.649196000000003,4.4931039999999998],[-73.649670999999998,4.4928509999999999],[-73.649698999999998,4.4928129999999999],[-73.649756999999994,4.4927349999999997],[-73.649783999999997,4.4926880000000002],[-73.649801999999994,4.4926399999999997],[-73.649822,4.492597],[-73.649839999999998,4.4925550000000003],[-73.649872000000002,4.4924749999999998],[-73.649914999999993,4.4923999999999999],[-73.649957000000001,4.4923229999999998],[-73.649923999999999,4.4922529999999998],[-73.649929,4.4922079999999998],[-73.649961000000005,4.4921309999999997],[-73.649992999999995,4.4920629999999999],[-73.650036,4.4920010000000001],[-73.650098,4.4919510000000002],[-73.650158000000005,4.4919130000000003],[-73.650217999999995,4.4918810000000002],[-73.650288000000003,4.4918579999999997],[-73.650357999999997,4.4918230000000001],[-73.650418000000002,4.4917860000000003],[-73.650430999999998,4.4917129999999998],[-73.650482999999994,4.4916660000000004],[-73.650525000000002,4.4916159999999996],[-73.650566999999995,4.4915659999999997],[-73.650620000000004,4.4915159999999998],[-73.650667999999996,4.4914680000000002],[-73.650707999999995,4.4914180000000004],[-73.650738000000004,4.4913629999999998],[-73.650761000000003,4.4913059999999998],[-73.650761000000003,4.491231],[-73.650789000000003,4.4911690000000002],[-73.650818999999998,4.4911089999999998],[-73.650857000000002,4.4910839999999999],[-73.650907000000004,4.4910439999999996],[-73.650959999999998,4.4910009999999998],[-73.651016999999996,4.4909379999999999],[-73.651049,4.4909049999999997],[-73.651111999999998,4.4908619999999999],[-73.651178999999999,4.4908250000000001],[-73.651230999999996,4.4908070000000002],[-73.651297999999997,4.490729],[-73.651332999999994,4.4906990000000002],[-73.651391000000004,4.490666],[-73.651458000000005,4.4906410000000001],[-73.651500999999996,4.4906129999999997],[-73.651544000000001,4.4905710000000001],[-73.651601999999997,4.4905309999999998],[-73.651660000000007,4.490494],[-73.651697999999996,4.4904489999999999],[-73.651735000000002,4.4903919999999999],[-73.651785000000004,4.4903440000000003],[-73.651831999999999,4.4902920000000002],[-73.651887000000002,4.4902540000000002],[-73.651964000000007,4.4902139999999999],[-73.652006999999998,4.4901840000000002],[-73.652051999999998,4.4901590000000002],[-73.652099000000007,4.4901520000000001],[-73.652146000000002,4.4901369999999998],[-73.652196000000004,4.4901270000000002],[-73.652248,4.4901220000000004],[-73.652296000000007,4.4901169999999997],[-73.652343000000002,4.4900919999999998],[-73.652376000000004,4.4900599999999997],[-73.652452999999994,4.4900229999999999],[-73.652488000000005,4.4899899999999997],[-73.652520999999993,4.4899579999999997],[-73.652546000000001,4.4899079999999998],[-73.652563000000001,4.4898600000000002],[-73.652585999999999,4.4898119999999997],[-73.652613000000002,4.4897749999999998],[-73.652670000000001,4.4897330000000002],[-73.652743000000001,4.4896950000000002],[-73.652776000000003,4.4896529999999997],[-73.652826000000005,4.4896310000000001],[-73.652867999999998,4.4896039999999999],[-73.652905000000004,4.4895719999999999],[-73.652981999999994,4.4895370000000003],[-73.653025,4.4895100000000001],[-73.653076999999996,4.4894879999999997],[-73.653131999999999,4.4894559999999997],[-73.653188999999998,4.4894090000000002],[-73.653246999999993,4.4893640000000001],[-73.653301999999996,4.4893289999999997],[-73.653369999999995,4.4892969999999996],[-73.653440000000003,4.4892640000000004],[-73.653518000000005,4.4892320000000003],[-73.653589999999994,4.4892139999999996],[-73.653660000000002,4.4892010000000004],[-73.653734999999998,4.4891810000000003],[-73.653801999999999,4.4891540000000001],[-73.653869999999998,4.4891170000000002],[-73.653931999999998,4.4890889999999999],[-73.653985000000006,4.489071],[-73.654027999999997,4.4890439999999998],[-73.654060000000001,4.4889739999999998],[-73.654083,4.4889109999999999],[-73.654117999999997,4.488861],[-73.654152999999994,4.4888180000000002],[-73.65419,4.4887550000000003],[-73.654242999999994,4.4886980000000003],[-73.654285999999999,4.4886350000000004],[-73.654319000000001,4.4885799999999998],[-73.654351000000005,4.488518],[-73.654398999999998,4.4884729999999999],[-73.654466999999997,4.48848],[-73.654520000000005,4.4885130000000002],[-73.654565000000005,4.4885510000000002],[-73.654628000000002,4.4885979999999996],[-73.654701000000003,4.4886480000000004],[-73.654746000000003,4.4886730000000004],[-73.654784000000006,4.4886980000000003],[-73.654831999999999,4.4887280000000001],[-73.654899999999998,4.488785],[-73.654951999999994,4.4888500000000002],[-73.654995,4.488918],[-73.655045000000001,4.4889900000000003],[-73.655077000000006,4.4890720000000002],[-73.655058999999994,4.4891269999999999],[-73.655051,4.4891740000000002],[-73.655039000000002,4.4892209999999997],[-73.655026000000007,4.489268],[-73.655011000000002,4.4893109999999998],[-73.654978,4.4893559999999999],[-73.654957999999993,4.4894179999999997],[-73.654972999999998,4.4894679999999996],[-73.655021000000005,4.48949],[-73.655089000000004,4.4894619999999996],[-73.655153999999996,4.4894220000000002],[-73.655221999999995,4.4893869999999998],[-73.655288999999996,4.4893489999999998],[-73.655338999999998,4.4893159999999996],[-73.655390999999995,4.4892940000000001],[-73.655458999999993,4.4892620000000001],[-73.655517000000003,4.4892349999999999],[-73.655579000000003,4.4892430000000001],[-73.655652000000003,4.4892729999999998],[-73.655725000000004,4.4893000000000001],[-73.655762999999993,4.4893270000000003],[-73.655835999999994,4.4893239999999999],[-73.655921000000006,4.4893190000000001],[-73.655966000000006,4.4893070000000002],[-73.656011000000007,4.4892940000000001],[-73.656053999999997,4.4892770000000004],[-73.656131000000002,4.4892469999999998],[-73.656204000000002,4.4892200000000004],[-73.656287000000006,4.4892079999999996],[-73.656332000000006,4.4892110000000001],[-73.656379000000001,4.4892089999999998],[-73.656431999999995,4.4891870000000003],[-73.656479000000004,4.4891639999999997],[-73.656546000000006,4.4891310000000004],[-73.656583999999995,4.4890939999999997],[-73.656637000000003,4.4890460000000001],[-73.656689,4.4890189999999999],[-73.656732000000005,4.4889609999999998],[-73.656777000000005,4.488899],[-73.656813999999997,4.4888389999999996],[-73.656846000000002,4.4887790000000001],[-73.656886,4.4887220000000001],[-73.656906000000006,4.4886799999999996],[-73.656936000000002,4.4885900000000003],[-73.656948999999997,4.4885419999999998],[-73.656976,4.4884599999999999],[-73.656979000000007,4.488372],[-73.656965999999997,4.4882989999999996],[-73.656959000000001,4.4882220000000004],[-73.656960999999995,4.4881589999999996],[-73.656983999999994,4.488111],[-73.657014000000004,4.4880579999999997],[-73.657032000000001,4.4880100000000001],[-73.657020000000003,4.4879499999999997],[-73.657004999999998,4.4878720000000003],[-73.65701,4.4878049999999998],[-73.657015000000001,4.4877469999999997],[-73.657039999999995,4.4876990000000001],[-73.657084999999995,4.4876639999999997],[-73.657132000000004,4.4876370000000003],[-73.65719,4.4876269999999998],[-73.657259999999994,4.487622],[-73.657302000000001,4.4875819999999997],[-73.657379000000006,4.4875439999999998],[-73.657419000000004,4.4874539999999996],[-73.657438999999997,4.4874020000000003],[-73.657460999999998,4.4873539999999998],[-73.657483999999997,4.4873089999999998],[-73.657499000000001,4.4872439999999996],[-73.657511999999997,4.4871910000000002],[-73.657523999999995,4.4871359999999996],[-73.657535999999993,4.4870840000000003],[-73.657539,4.4870320000000001],[-73.657537000000005,4.4869820000000002],[-73.657511999999997,4.4869289999999999],[-73.657504000000003,4.4868810000000003],[-73.657494,4.4868329999999998],[-73.657486000000006,4.4867860000000004],[-73.657472999999996,4.4867330000000001],[-73.657465000000002,4.486688],[-73.657456999999994,4.4866429999999999],[-73.657449,4.4865930000000001],[-73.657442000000003,4.4865430000000002],[-73.657437000000002,4.4864949999999997],[-73.657438999999997,4.4864480000000002],[-73.657438999999997,4.4863759999999999],[-73.657419000000004,4.4863059999999999],[-73.657388999999995,4.4862390000000003],[-73.657342,4.4861620000000002],[-73.657319000000001,4.4861149999999999],[-73.657293999999993,4.4860749999999996],[-73.657279000000003,4.4859879999999999],[-73.657276999999993,4.4859410000000004],[-73.657276999999993,4.4858960000000003],[-73.657276999999993,4.4858140000000004],[-73.657269999999997,4.4857290000000001],[-73.657268000000002,4.485684],[-73.657257999999999,4.485627],[-73.657255000000006,4.4855799999999997],[-73.657246999999998,4.4855099999999997],[-73.657267000000004,4.4854520000000004],[-73.657308999999998,4.4854139999999996],[-73.657381999999998,4.4854070000000004],[-73.657449999999997,4.4854320000000003],[-73.657511999999997,4.4854770000000004],[-73.657568999999995,4.4855270000000003],[-73.657623999999998,4.4855689999999999],[-73.657677000000007,4.4855910000000003],[-73.657729000000003,4.4856059999999998],[-73.657786000000002,4.4856129999999999],[-73.657843999999997,4.4856379999999998],[-73.657883999999996,4.4856600000000002],[-73.657946999999993,4.4857170000000002],[-73.658000000000001,4.4857889999999996],[-73.658028000000002,4.4858320000000003],[-73.658073000000002,4.4859070000000001],[-73.658111000000005,4.4859369999999998],[-73.658186000000001,4.4860090000000001],[-73.658220999999998,4.4860490000000004],[-73.658253999999999,4.486084],[-73.658286000000004,4.4861209999999998],[-73.658344,4.4861829999999996],[-73.658404000000004,4.4862380000000002],[-73.658456000000001,4.4862399999999996],[-73.658503999999994,4.4862770000000003],[-73.658561000000006,4.4863189999999999],[-73.658613000000003,4.4863819999999999],[-73.658659999999998,4.4864319999999998],[-73.658726999999999,4.4864839999999999],[-73.658769000000007,4.4865259999999996],[-73.658818999999994,4.486561],[-73.658889000000002,4.4865690000000003],[-73.658940999999999,4.4865760000000003],[-73.658987999999994,4.4865830000000004],[-73.659036,4.4865899999999996],[-73.659118000000007,4.4866200000000003],[-73.659198000000004,4.486675],[-73.659239999999997,4.4867020000000002],[-73.659279999999995,4.4867319999999999],[-73.659317000000001,4.4867650000000001],[-73.659384000000003,4.486815],[-73.659429000000003,4.486872],[-73.659469000000001,4.4869219999999999],[-73.659520999999998,4.486955],[-73.659571,4.4869750000000002],[-73.659633999999997,4.4869899999999996],[-73.659717000000001,4.4870000000000001],[-73.659789000000004,4.4870000000000001],[-73.659856000000005,4.4870000000000001],[-73.659914000000001,4.4870099999999997],[-73.659961999999993,4.4870380000000001],[-73.659998999999999,4.4870859999999997],[-73.660019000000005,4.4871309999999998],[-73.660014000000004,4.4871889999999999],[-73.659969000000004,4.4872540000000001],[-73.659912000000006,4.487311],[-73.659869999999998,4.4873510000000003],[-73.659827000000007,4.4873880000000002],[-73.659809999999993,4.4874309999999999],[-73.659852999999998,4.4874809999999998],[-73.659920999999997,4.4874989999999997],[-73.659982999999997,4.4874910000000003],[-73.660049999999998,4.4874739999999997],[-73.660111999999998,4.4874710000000002],[-73.660177000000004,4.4874580000000002],[-73.660229999999999,4.4874499999999999],[-73.660281999999995,4.4874169999999998],[-73.660330000000002,4.4873940000000001],[-73.660387999999998,4.487349],[-73.660448000000002,4.487304],[-73.660521000000003,4.4872670000000001],[-73.660585999999995,4.4872339999999999],[-73.660640999999998,4.4872009999999998],[-73.660701000000003,4.4871460000000001],[-73.660743999999994,4.4870910000000004],[-73.660786000000002,4.4870359999999998],[-73.660836000000003,4.4869940000000001],[-73.660877999999997,4.4869190000000003],[-73.660910000000001,4.4868420000000002],[-73.660910000000001,4.4867470000000003],[-73.660910000000001,4.4866950000000001],[-73.660901999999993,4.4866380000000001],[-73.660899999999998,4.4865880000000002],[-73.660893000000002,4.4865409999999999],[-73.660863000000006,4.486478],[-73.660825000000003,4.4864160000000002],[-73.660790000000006,4.4863759999999999],[-73.660742999999997,4.4863390000000001],[-73.660730000000001,4.4862659999999996],[-73.660717000000005,4.4861740000000001],[-73.660702000000001,4.4861089999999999],[-73.660752000000002,4.486059],[-73.660824000000005,4.4860160000000002],[-73.660856999999993,4.4859840000000002],[-73.660911999999996,4.4859309999999999],[-73.660954000000004,4.4858859999999998],[-73.660995999999997,4.4858380000000002],[-73.661034000000001,4.4858079999999996],[-73.661072000000004,4.4857810000000002],[-73.661096999999998,4.4857430000000003],[-73.661105000000006,4.4856959999999999],[-73.661090000000002,4.4856309999999997],[-73.661083000000005,4.485576],[-73.661078000000003,4.4855229999999997],[-73.661071000000007,4.485468],[-73.661078000000003,4.4854099999999999],[-73.661085,4.4853500000000004],[-73.661081999999993,4.4852949999999998],[-73.661074999999997,4.4852379999999998],[-73.661050000000003,4.4851900000000002],[-73.661024999999995,4.4851330000000003],[-73.661005000000003,4.4850760000000003],[-73.660977000000003,4.4850190000000003],[-73.660966999999999,4.4849439999999996],[-73.660951999999995,4.484864],[-73.660966999999999,4.484782],[-73.660974999999993,4.4847320000000002],[-73.661000000000001,4.4846570000000003],[-73.661022000000003,4.4846000000000004],[-73.66104,4.4845519999999999],[-73.661069999999995,4.4844970000000002],[-73.661073000000002,4.4844390000000001],[-73.661068,4.484381],[-73.661061000000004,4.4843190000000002],[-73.661057999999997,4.484254],[-73.661057999999997,4.4841839999999999],[-73.661069999999995,4.4841160000000002],[-73.661078000000003,4.4840530000000003],[-73.661088000000007,4.4840010000000001],[-73.661097999999996,4.4839279999999997],[-73.661106000000004,4.4838560000000003],[-73.661125999999996,4.4837860000000003],[-73.661151000000004,4.4837210000000001],[-73.661203999999998,4.4836539999999996],[-73.661276000000001,4.4836140000000002],[-73.661326000000003,4.4835989999999999],[-73.661377999999999,4.4835669999999999],[-73.661416000000003,4.4835399999999996],[-73.661451,4.4834820000000004],[-73.661496,4.4834240000000003],[-73.661524,4.4833470000000002],[-73.661562000000004,4.4832739999999998],[-73.661598999999995,4.4832340000000004],[-73.661659,4.4831839999999996],[-73.661715999999998,4.4831209999999997],[-73.661749,4.4830889999999997],[-73.661816999999999,4.4830420000000002],[-73.661877000000004,4.4830189999999996],[-73.661935,4.4830160000000001],[-73.66198,4.4830059999999996],[-73.662059999999997,4.483009],[-73.662107000000006,4.4830160000000001],[-73.662154000000001,4.4830230000000002],[-73.662199000000001,4.483028],[-73.662282000000005,4.4830550000000002],[-73.662369999999996,4.48306],[-73.662419999999997,4.4830899999999998],[-73.662497000000002,4.4830899999999998],[-73.662574000000006,4.4830920000000001],[-73.662647000000007,4.4830870000000003],[-73.662711999999999,4.4830699999999997],[-73.662760000000006,4.483028],[-73.662786999999994,4.4829910000000002],[-73.662813999999997,4.4829429999999997],[-73.662846000000002,4.4828749999999999],[-73.662846000000002,4.4828029999999996],[-73.662853999999996,4.4827510000000004],[-73.662851000000003,4.4826930000000003],[-73.662884000000005,4.4826329999999999],[-73.662976999999998,4.482596],[-73.663034999999994,4.4825809999999997],[-73.663088000000002,4.4826040000000003],[-73.663148000000007,4.4826439999999996],[-73.663225999999995,4.4826959999999998],[-73.663275999999996,4.4826889999999997],[-73.663328000000007,4.4826790000000001],[-73.663381000000001,4.4826189999999997],[-73.663408000000004,4.4825460000000001],[-73.663417999999993,4.4825010000000001],[-73.663421,4.4824109999999999],[-73.663398000000001,4.4823089999999999],[-73.663387999999998,4.4822569999999997],[-73.663385000000005,4.4822040000000003],[-73.663382999999996,4.4821489999999997],[-73.663381000000001,4.4820919999999997],[-73.663396000000006,4.4820399999999996],[-73.663392999999999,4.4819880000000003],[-73.663390000000007,4.4819380000000004],[-73.663387,4.4818879999999996],[-73.663383999999994,4.48184],[-73.663386000000003,4.4817929999999997],[-73.663398999999998,4.4817479999999996],[-73.663450999999995,4.4817450000000001],[-73.663535999999993,4.4817580000000001],[-73.663593000000006,4.4817929999999997],[-73.663650000000004,4.4818300000000004],[-73.663702999999998,4.4818850000000001],[-73.663756000000006,4.4819500000000003],[-73.663803999999999,4.4820149999999996],[-73.663843999999997,4.4820900000000004],[-73.663895999999994,4.4821720000000003],[-73.663923999999994,4.4822150000000001],[-73.663954000000004,4.4822579999999999],[-73.663977000000003,4.4823000000000004],[-73.664000000000001,4.4823430000000002],[-73.664023,4.4823849999999998],[-73.664045000000002,4.4824270000000004],[-73.664069999999995,4.4824719999999996],[-73.664096999999998,4.4825140000000001],[-73.664126999999993,4.482551],[-73.664153999999996,4.482596],[-73.664184000000006,4.4826379999999997],[-73.664219000000003,4.4826779999999999],[-73.664257000000006,4.4827209999999997],[-73.664289999999994,4.4827630000000003],[-73.664327,4.4828060000000001],[-73.664356999999995,4.4828479999999997],[-73.664389999999997,4.4828910000000004],[-73.664420000000007,4.4829359999999996],[-73.664446999999996,4.4829780000000001],[-73.664477000000005,4.4830160000000001],[-73.664536999999996,4.4830860000000001],[-73.664569,4.4831279999999998],[-73.664602000000002,4.4831709999999996],[-73.664635000000004,4.4832159999999996],[-73.664664999999999,4.4832590000000003],[-73.664698000000001,4.4832989999999997],[-73.664731000000003,4.4833369999999997],[-73.664767999999995,4.4833749999999997],[-73.664824999999993,4.4834230000000002],[-73.664861999999999,4.4834509999999996],[-73.664899000000005,4.4834779999999999],[-73.664936999999995,4.4835060000000002],[-73.664979000000002,4.4835330000000004],[-73.665021999999993,4.4835580000000004],[-73.665064999999998,4.4835799999999999],[-73.665103000000002,4.4836270000000003],[-73.665175000000005,4.4836470000000004],[-73.665234999999996,4.4836450000000001],[-73.665287000000006,4.4836200000000002],[-73.665312,4.4835820000000002],[-73.665379999999999,4.4835240000000001],[-73.665419999999997,4.4834959999999997],[-73.665452000000002,4.4834579999999997],[-73.665480000000002,4.4834230000000002],[-73.665537,4.4833530000000001],[-73.665561999999994,4.4833129999999999],[-73.665587000000002,4.4832679999999998],[-73.665614000000005,4.483225],[-73.665638999999999,4.4831830000000004],[-73.665659000000005,4.483136],[-73.665661999999998,4.4830909999999999],[-73.665666999999999,4.4830180000000004],[-73.665661999999998,4.482945],[-73.665634999999995,4.48285],[-73.665634999999995,4.4827820000000003],[-73.665615000000003,4.4827300000000001],[-73.665567999999993,4.4826649999999999],[-73.665495000000007,4.4826069999999998],[-73.665442999999996,4.4825699999999999],[-73.665402999999998,4.4825350000000004],[-73.665210000000002,4.4823680000000001],[-73.665139999999994,4.4822899999999999],[-73.665102000000005,4.4822499999999996],[-73.665066999999993,4.4822069999999998],[-73.665025,4.48217],[-73.665002999999999,4.4821200000000001],[-73.664964999999995,4.4820779999999996],[-73.664940000000001,4.4820250000000001],[-73.664897999999994,4.4819820000000004],[-73.664860000000004,4.4819449999999996],[-73.664829999999995,4.4819019999999998],[-73.664793000000003,4.4818619999999996],[-73.664760999999999,4.4818199999999999],[-73.664731000000003,4.4817729999999996],[-73.664698999999999,4.4817359999999997],[-73.664676999999998,4.4816839999999996],[-73.664643999999996,4.4816320000000003],[-73.664593999999994,4.4815389999999997],[-73.664563999999999,4.4814860000000003],[-73.664548999999994,4.4814239999999996],[-73.664546000000001,4.481376],[-73.664544000000006,4.4813260000000001],[-73.664541,4.4812709999999996],[-73.664542999999995,4.4812079999999996],[-73.664533000000006,4.4811480000000001],[-73.664528000000004,4.4811009999999998],[-73.664519999999996,4.4810559999999997],[-73.664505000000005,4.481001],[-73.664495000000002,4.4809539999999997],[-73.664486999999994,4.4809060000000001],[-73.664472000000004,4.4808560000000002],[-73.664462,4.480804],[-73.664449000000005,4.4807540000000001],[-73.664439000000002,4.4807069999999998],[-73.664432000000005,4.4806520000000001],[-73.664432000000005,4.4806049999999997],[-73.664427000000003,4.4805580000000003],[-73.664415000000005,4.4805099999999998],[-73.664405000000002,4.4804649999999997],[-73.664412999999996,4.4804199999999996],[-73.664438000000004,4.4803800000000003],[-73.664466000000004,4.4803430000000004],[-73.664544000000006,4.4803110000000004],[-73.664589000000007,4.4803030000000001],[-73.664676999999998,4.4802929999999996],[-73.664756999999994,4.4803009999999999],[-73.664828999999997,4.4803230000000003],[-73.664901999999998,4.4803379999999997],[-73.664986999999996,4.480353],[-73.665085000000005,4.4803610000000003],[-73.665144999999995,4.4803629999999997],[-73.665199999999999,4.4803559999999996],[-73.665253000000007,4.4803459999999999],[-73.665306000000001,4.4803389999999998],[-73.665356000000003,4.4803309999999996],[-73.665403999999995,4.480321],[-73.665484000000006,4.4803030000000001],[-73.665564000000003,4.480283],[-73.665642000000005,4.4802660000000003],[-73.665687000000005,4.4802559999999998],[-73.665746999999996,4.4802309999999999],[-73.665807000000001,4.4802080000000002],[-73.665864999999997,4.4801849999999996],[-73.665916999999993,4.4801580000000003],[-73.665971999999996,4.4801380000000002],[-73.666023999999993,4.4801229999999999],[-73.666077000000001,4.4801080000000004],[-73.666129999999995,4.4800899999999997],[-73.666183000000004,4.4800769999999996],[-73.666240000000002,4.4800639999999996],[-73.666297,4.4800560000000003],[-73.666352000000003,4.4800490000000002],[-73.666407000000007,4.4800409999999999],[-73.666471999999999,4.4800310000000003],[-73.666533999999999,4.4800240000000002],[-73.666585999999995,4.4800190000000004],[-73.666674,4.4800259999999996],[-73.666724000000002,4.4800459999999998],[-73.666781,4.4800630000000004],[-73.666836000000004,4.4800810000000002],[-73.666883999999996,4.4800990000000001],[-73.666942000000006,4.4801089999999997],[-73.666989000000001,4.4801219999999997],[-73.667039000000003,4.4801339999999996],[-73.667108999999996,4.4801640000000003],[-73.667174000000003,4.4802140000000001],[-73.667216999999994,4.4802289999999996],[-73.667261999999994,4.4802460000000002],[-73.667339999999996,4.4802790000000003],[-73.667388000000003,4.4803170000000003],[-73.667433000000003,4.4803499999999996],[-73.667632999999995,4.4803499999999996],[-73.667687999999998,4.4803319999999998],[-73.667743000000002,4.4803220000000001],[-73.667807999999994,4.4803249999999997],[-73.667888000000005,4.4803369999999996],[-73.667935,4.4803420000000003],[-73.668025,4.48034],[-73.668087999999997,4.4803699999999997],[-73.668158000000005,4.4803769999999998],[-73.668231000000006,4.4804170000000001],[-73.668295999999998,4.4804500000000003],[-73.668362999999999,4.4804899999999996],[-73.668406000000004,4.4805070000000002],[-73.668447999999998,4.4805250000000001],[-73.668494999999993,4.4805270000000004],[-73.668547000000004,4.480524],[-73.668599,4.4805289999999998],[-73.668655999999999,4.480537],[-73.668702999999994,4.4805570000000001],[-73.668752999999995,4.4805619999999999],[-73.668796,4.4805770000000003],[-73.668841,4.4805919999999997],[-73.668887999999995,4.4805890000000002],[-73.668937999999997,4.4805989999999998],[-73.668982999999997,4.4806020000000002],[-73.669030000000006,4.4805989999999998],[-73.669110000000003,4.4805669999999997],[-73.669138000000004,4.4805219999999997],[-73.669129999999996,4.4804449999999996],[-73.669117999999997,4.4803949999999997],[-73.669105999999999,4.4803480000000002],[-73.669089,4.4803050000000004],[-73.669056999999995,4.4802619999999997],[-73.668999999999997,4.4802150000000003],[-73.668954999999997,4.4801780000000004],[-73.668909999999997,4.4801460000000004],[-73.668857000000003,4.4801080000000004],[-73.668805000000006,4.4800760000000004],[-73.668747999999994,4.4800360000000001],[-73.668702999999994,4.4799889999999998],[-73.668657999999994,4.4799509999999998],[-73.668612999999993,4.4799040000000003],[-73.668621000000002,4.479857],[-73.668664000000007,4.4797840000000004],[-73.668701999999996,4.4797570000000002],[-73.668786999999995,4.4797440000000002],[-73.668874000000002,4.4797359999999999],[-73.668920999999997,4.4797289999999998],[-73.668965999999998,4.4797120000000001],[-73.669015999999999,4.4797019999999996],[-73.669072999999997,4.4797039999999999],[-73.669121000000004,4.4797019999999996],[-73.669201000000001,4.4796870000000002],[-73.669282999999993,4.4796750000000003],[-73.669359999999998,4.4796680000000002],[-73.669415000000001,4.4796829999999996],[-73.669460000000001,4.4796880000000003],[-73.669522999999998,4.4796699999999996],[-73.669584999999998,4.4796550000000002],[-73.669659999999993,4.4796449999999997],[-73.669712000000004,4.4796269999999998],[-73.669797000000003,4.479609],[-73.669828999999993,4.4796440000000004],[-73.669914000000006,4.4796459999999998],[-73.669990999999996,4.4796279999999999],[-73.670063999999996,4.4796180000000003],[-73.670143999999993,4.4796250000000004],[-73.670210999999995,4.4796199999999997],[-73.670276000000001,4.4795970000000001],[-73.670366000000001,4.47959],[-73.670411000000001,4.4795769999999999],[-73.670456000000001,4.479565],[-73.670503999999994,4.4795550000000004],[-73.670561000000006,4.4795379999999998],[-73.670610999999994,4.4795129999999999],[-73.670663000000005,4.4794809999999998],[-73.670703000000003,4.4794510000000001],[-73.670781000000005,4.4794409999999996],[-73.670850999999999,4.4794330000000002],[-73.670899000000006,4.4794460000000003],[-73.670946000000001,4.4794239999999999],[-73.671014,4.4793989999999999],[-73.671055999999993,4.4793620000000001],[-73.671098000000001,4.4793390000000004],[-73.671135000000007,4.4793120000000002],[-73.671211999999997,4.47926],[-73.671284,4.4792230000000002],[-73.671351000000001,4.4792310000000004],[-73.671424000000002,4.4792189999999996],[-73.671496000000005,4.4792019999999999],[-73.671574000000007,4.47919],[-73.671659000000005,4.4791999999999996],[-73.671746999999996,4.4792180000000004],[-73.671796999999998,4.4792160000000001],[-73.671845000000005,4.4792209999999999],[-73.671918000000005,4.4792180000000004],[-73.671999999999997,4.4792149999999999],[-73.672044999999997,4.4792199999999998],[-73.672138000000004,4.4792249999999996],[-73.672188000000006,4.4792230000000002],[-73.672235999999998,4.4792230000000002],[-73.672284000000005,4.4792180000000004],[-73.672353999999999,4.4791660000000002],[-73.672421999999997,4.4791429999999997],[-73.672505000000001,4.4791400000000001],[-73.672556999999998,4.479158],[-73.672600000000003,4.479171],[-73.672646999999998,4.4791790000000002],[-73.672691999999998,4.4791840000000001],[-73.672740000000005,4.4791889999999999],[-73.672792000000001,4.4791889999999999],[-73.672835000000006,4.4791740000000004],[-73.672882999999999,4.4791920000000003],[-73.67295,4.4791949999999998],[-73.673002999999994,4.4791949999999998],[-73.673052999999996,4.4792019999999999],[-73.673114999999996,4.479209],[-73.673159999999996,4.4792160000000001],[-73.673207000000005,4.4792290000000001],[-73.673275000000004,4.4792709999999998],[-73.673344999999998,4.4793139999999996],[-73.673392000000007,4.4793339999999997],[-73.673472000000004,4.4793570000000003],[-73.673524999999998,4.4793770000000004],[-73.673575,4.4793640000000003],[-73.673621999999995,4.4790320000000001],[-73.673657000000006,4.4789719999999997],[-73.673719000000006,4.4789219999999998],[-73.673737000000003,4.4788740000000002],[-73.6738,4.4788360000000003],[-73.673883000000004,4.4788180000000004],[-73.673963000000001,4.4787929999999996],[-73.674008000000001,4.478796],[-73.674091000000004,4.4787860000000004],[-73.674176000000003,4.4787790000000003],[-73.674259000000006,4.4787610000000004],[-73.674329,4.4787489999999996],[-73.674391999999997,4.4787189999999999],[-73.674474000000004,4.4787039999999996],[-73.674520999999999,4.4786869999999999],[-73.674569000000005,4.478675],[-73.674616999999998,4.4786570000000001],[-73.674668999999994,4.4786349999999997],[-73.674717000000001,4.4786200000000003],[-73.674767000000003,4.478593],[-73.674829000000003,4.4785700000000004],[-73.674884000000006,4.4785570000000003],[-73.674931000000001,4.4785490000000001],[-73.674982999999997,4.478542],[-73.675031000000004,4.4785300000000001],[-73.675106,4.4785050000000002],[-73.675171000000006,4.4784579999999998],[-73.675224,4.4784300000000004],[-73.675275999999997,4.4783730000000004],[-73.675329000000005,4.4783580000000001],[-73.675383999999994,4.4783249999999999],[-73.675414000000004,4.4782700000000002],[-73.675391000000005,4.4781719999999998],[-73.675334000000007,4.4781170000000001],[-73.675272000000007,4.4780800000000003],[-73.675149000000005,4.4780600000000002],[-73.675066999999999,4.4780480000000003],[-73.675004999999999,4.4780230000000003],[-73.674931999999998,4.4779600000000004],[-73.674902000000003,4.4779179999999998],[-73.674869000000001,4.4778760000000002],[-73.674831999999995,4.4778289999999998],[-73.674808999999996,4.4777719999999999],[-73.674791999999997,4.4777250000000004],[-73.674763999999996,4.4776800000000003],[-73.674745999999999,4.4776280000000002],[-73.674730999999994,4.4775830000000001],[-73.674721000000005,4.477538],[-73.674726000000007,4.477455],[-73.674756000000002,4.4773779999999999],[-73.674773999999999,4.4773350000000001],[-73.674790999999999,4.477277],[-73.674843999999993,4.4772090000000002],[-73.674898999999996,4.4771590000000003],[-73.674961999999994,4.4771270000000003],[-73.675044999999997,4.4771340000000004],[-73.675122000000002,4.4771289999999997],[-73.675167000000002,4.4771219999999996],[-73.675222000000005,4.4771049999999999],[-73.675267000000005,4.4770849999999998],[-73.675308999999999,4.4770649999999996],[-73.675334000000007,4.4770269999999996],[-73.675388999999996,4.4769449999999997],[-73.675409000000002,4.4768949999999998],[-73.675426000000002,4.4768480000000004],[-73.675436000000005,4.4767999999999999],[-73.675443999999999,4.4767020000000004],[-73.675426000000002,4.4766389999999996],[-73.675417999999993,4.4765940000000004],[-73.675399999999996,4.4765309999999996],[-73.675385000000006,4.4764559999999998],[-73.675370000000001,4.4763780000000004],[-73.675358000000003,4.4762899999999997],[-73.675353000000001,4.4762399999999998],[-73.675355999999994,4.4761930000000003],[-73.675358000000003,4.4761449999999998],[-73.675370000000001,4.4760600000000004],[-73.675364999999999,4.4760150000000003],[-73.675357000000005,4.4759679999999999],[-73.675342000000001,4.4758899999999997],[-73.675335000000004,4.4758199999999997],[-73.675357000000005,4.4757420000000003],[-73.675364999999999,4.475695],[-73.675372999999993,4.4756479999999996],[-73.675415999999998,4.4755760000000002],[-73.675432999999998,4.4755330000000004],[-73.675475000000006,4.4754800000000001],[-73.6755,4.4753920000000003],[-73.675511999999998,4.4753449999999999],[-73.675516999999999,4.4752929999999997],[-73.675522000000001,4.475238],[-73.675524999999993,4.4751830000000004],[-73.675529999999995,4.4751279999999998],[-73.675533000000001,4.4750699999999997],[-73.675534999999996,4.475015],[-73.675532000000004,4.474958],[-73.675516999999999,4.4748979999999996],[-73.675504000000004,4.4748349999999997],[-73.675488999999999,4.4747729999999999],[-73.675471999999999,4.4747149999999998],[-73.675466999999998,4.4746649999999999],[-73.675459000000004,4.474615],[-73.675452000000007,4.4745600000000003],[-73.675449,4.4745119999999998],[-73.675445999999994,4.4744669999999998],[-73.675443000000001,4.4744190000000001],[-73.675445999999994,4.4743719999999998],[-73.675448000000003,4.4743250000000003],[-73.675448000000003,4.4742769999999998],[-73.675448000000003,4.4742300000000004],[-73.675453000000005,4.474132],[-73.675444999999996,4.4740770000000003],[-73.675447000000005,4.4740320000000002],[-73.675449999999998,4.4739849999999999],[-73.675456999999994,4.4739380000000004],[-73.675461999999996,4.4738829999999998],[-73.675466999999998,4.4738230000000003],[-73.675478999999996,4.4737679999999997],[-73.675496999999993,4.4737210000000003],[-73.675514000000007,4.4736739999999999],[-73.675533999999999,4.4736320000000003],[-73.675554000000005,4.4735889999999996],[-73.675572000000003,4.4735440000000004],[-73.675601999999998,4.4734639999999999],[-73.675605000000004,4.473382],[-73.675636999999995,4.4733020000000003],[-73.675659999999993,4.4732190000000003],[-73.67568,4.4731319999999997],[-73.675686999999996,4.4730850000000002],[-73.675695000000005,4.4730379999999998],[-73.675708,4.4729900000000002],[-73.675723000000005,4.4729469999999996],[-73.675746000000004,4.4729039999999998],[-73.675770999999997,4.4728620000000001],[-73.675798,4.4728199999999996],[-73.675830000000005,4.4727800000000002],[-73.675861999999995,4.4727430000000004],[-73.675894999999997,4.4727050000000004],[-73.675932000000003,4.4726699999999999],[-73.676005000000004,4.4726129999999999],[-73.676055000000005,4.4725859999999997],[-73.676096999999999,4.4725609999999998],[-73.676134000000005,4.4725289999999998],[-73.676171999999994,4.4724959999999996],[-73.676204999999996,4.4724640000000004],[-73.676242000000002,4.4724320000000004],[-73.676304000000002,4.4723750000000004],[-73.676361,4.4723170000000003],[-73.676421000000005,4.4722689999999998],[-73.676479,4.4722160000000004],[-73.676553999999996,4.4721590000000004],[-73.676591000000002,4.4721289999999998],[-73.676631,4.4721010000000003],[-73.676674000000006,4.4720760000000004],[-73.676714000000004,4.4720510000000004],[-73.676794000000001,4.4719930000000003],[-73.676856000000001,4.47194],[-73.676925999999995,4.4718830000000001],[-73.676993999999993,4.4718249999999999],[-73.677031999999997,4.4717979999999997],[-73.677070000000001,4.4717710000000004],[-73.677142000000003,4.471724],[-73.677192000000005,4.4716760000000004],[-73.677259000000006,4.4716230000000001],[-73.677329,4.4715730000000002],[-73.677398999999994,4.4715249999999997],[-73.677474000000004,4.4714830000000001],[-73.677515999999997,4.471463],[-73.677595999999994,4.4714299999999998],[-73.677673999999996,4.4714029999999996],[-73.677717000000001,4.4713880000000001],[-73.677760000000006,4.4713700000000003],[-73.677797999999996,4.4713430000000001],[-73.677860999999993,4.4712829999999997],[-73.677925999999999,4.4712310000000004],[-73.677958000000004,4.4711930000000004],[-73.677993000000001,4.4711610000000004],[-73.678027999999998,4.4711239999999997],[-73.678061,4.4710910000000004],[-73.678118999999995,4.471031],[-73.678173999999999,4.470974],[-73.678239000000005,4.4709190000000003],[-73.678317000000007,4.4708810000000003],[-73.678398999999999,4.4708610000000002],[-73.678447000000006,4.470853],[-73.678492000000006,4.4708379999999996],[-73.678534999999997,4.4708249999999996],[-73.678552999999994,4.4707379999999999],[-73.678556,4.4706859999999997],[-73.678559000000007,4.4706330000000003],[-73.678561000000002,4.4705779999999997],[-73.678563999999994,4.4705279999999998],[-73.678576000000007,4.4704800000000002],[-73.678594000000004,4.4704319999999997],[-73.678618999999998,4.4703869999999997],[-73.678646999999998,4.4703520000000001],[-73.678693999999993,4.4702840000000004],[-73.678717000000006,4.470199],[-73.678735000000003,4.4701190000000004],[-73.678737999999996,4.4700639999999998],[-73.678754999999995,4.4699809999999998],[-73.678759999999997,4.4699340000000003],[-73.678763000000004,4.4698869999999999],[-73.678768000000005,4.4698349999999998],[-73.67877,4.4697849999999999],[-73.678768000000005,4.4697380000000004],[-73.678758000000002,4.4696480000000003],[-73.678753,4.4695999999999998],[-73.678753,4.4695530000000003],[-73.678758000000002,4.4695049999999998],[-73.678768000000005,4.4694599999999998],[-73.678804999999997,4.4693880000000004],[-73.678843000000001,4.4693350000000001],[-73.678877999999997,4.4692749999999997],[-73.678893000000002,4.4691999999999998],[-73.678886000000006,4.4691130000000001],[-73.678873999999993,4.4690659999999998],[-73.678859000000003,4.4690180000000002],[-73.678838999999996,4.4689699999999997],[-73.678824000000006,4.4689220000000001],[-73.678807000000006,4.4688749999999997],[-73.678790000000006,4.4688270000000001],[-73.678771999999995,4.4687789999999996],[-73.678754999999995,4.4687359999999998],[-73.678723000000005,4.4686560000000002],[-73.678685000000002,4.4685829999999997],[-73.678642999999994,4.4685100000000002],[-73.678621000000007,4.4684699999999999],[-73.678578999999999,4.4683929999999998],[-73.678563999999994,4.4683460000000004],[-73.678522000000001,4.4682659999999998],[-73.678477000000001,4.4681959999999998],[-73.678444999999996,4.4681410000000001],[-73.678402000000006,4.4680840000000002],[-73.678369000000004,4.4680220000000004],[-73.678319000000002,4.4679570000000002],[-73.678274000000002,4.4678820000000004],[-73.678227000000007,4.4678050000000002],[-73.678182000000007,4.467733],[-73.678123999999997,4.46767],[-73.678085999999993,4.4676429999999998],[-73.678031000000004,4.4675859999999998],[-73.677993999999998,4.4675190000000002],[-73.677974000000006,4.4674440000000004],[-73.677970999999999,4.4673639999999999],[-73.677995999999993,4.467282],[-73.678014000000005,4.4672400000000003],[-73.678092000000007,4.4672020000000003],[-73.678141999999994,4.4672140000000002],[-73.678208999999995,4.4672539999999996],[-73.678256000000005,4.4673170000000004],[-73.678293999999994,4.4673439999999998],[-73.678369000000004,4.4673889999999998],[-73.678433999999996,4.4674519999999998],[-73.678506999999996,4.4675050000000001],[-73.678563999999994,4.4675200000000004],[-73.678640999999999,4.4675469999999997],[-73.678729000000004,4.4675399999999996],[-73.678783999999993,4.4675099999999999],[-73.678833999999995,4.4674630000000004],[-73.678886000000006,4.4674079999999998],[-73.678944000000001,4.4673449999999999],[-73.678977000000003,4.4673020000000001],[-73.679004000000006,4.4672650000000003],[-73.679046999999997,4.4671900000000004],[-73.679068999999998,4.4671500000000002],[-73.679091,4.4671079999999996],[-73.679119,4.4670350000000001],[-73.679120999999995,4.4669619999999997],[-73.679111000000006,4.4668850000000004],[-73.679108999999997,4.4668099999999997],[-73.679139000000006,4.4667320000000004],[-73.679186000000001,4.4667199999999996],[-73.679231000000001,4.4667079999999997],[-73.679278999999994,4.4667050000000001],[-73.679354000000004,4.4667519999999996],[-73.679372000000001,4.4668070000000002],[-73.679389,4.4668640000000002],[-73.679396999999994,4.4669160000000003],[-73.679399000000004,4.4669660000000002],[-73.679395999999997,4.4670480000000001],[-73.679406,4.4670959999999997],[-73.679433000000003,4.4671440000000002],[-73.679478000000003,4.4671859999999999],[-73.679513,4.4672179999999999],[-73.679596000000004,4.4672159999999996],[-73.679678999999993,4.4672289999999997],[-73.679732000000001,4.4672340000000004],[-73.679779999999994,4.4672340000000004],[-73.679828000000001,4.467231],[-73.679880999999995,4.4672260000000001],[-73.679929000000001,4.4672260000000001],[-73.679980999999998,4.4672260000000001],[-73.680031,4.4672289999999997],[-73.680077999999995,4.4672320000000001],[-73.680158000000006,4.4672320000000001],[-73.680229999999995,4.467225],[-73.680296999999996,4.4672179999999999],[-73.680367000000004,4.4671849999999997],[-73.680441999999999,4.4671649999999996],[-73.680509000000001,4.4671830000000003],[-73.680583999999996,4.4671830000000003],[-73.680656999999997,4.4671560000000001],[-73.680727000000005,4.4671529999999997],[-73.680808999999996,4.4671099999999999],[-73.680852000000002,4.4670820000000004],[-73.680930000000004,4.4670589999999999],[-73.681015000000002,4.4670389999999998],[-73.681057999999993,4.4670259999999997],[-73.681100000000001,4.4670079999999999],[-73.681188000000006,4.46699],[-73.681269999999998,4.4669449999999999],[-73.681344999999993,4.4669080000000001],[-73.681411999999995,4.4669249999999998],[-73.681470000000004,4.4669400000000001],[-73.681517999999997,4.4669869999999996],[-73.681571000000005,4.46699],[-73.681629000000001,4.4669879999999997],[-73.681721999999993,4.4669930000000004],[-73.681797000000003,4.4670259999999997],[-73.681875000000005,4.4670579999999998],[-73.681922999999998,4.4670699999999997],[-73.681970000000007,4.4670870000000003],[-73.682047999999995,4.4671269999999996],[-73.682092999999995,4.4671370000000001],[-73.682141000000001,4.467149],[-73.682186000000002,4.4671609999999999],[-73.682233999999994,4.4671640000000004],[-73.682489000000004,4.4674889999999996],[-73.682543999999993,4.4675409999999998],[-73.682638999999995,4.4675729999999998],[-73.682687000000001,4.4675830000000003],[-73.682739999999995,4.4675950000000002],[-73.682789999999997,4.4676],[-73.682860000000005,4.4675719999999997],[-73.682917000000003,4.4675240000000001],[-73.682950000000005,4.4674820000000004],[-73.682968000000002,4.4674399999999999],[-73.682980999999998,4.4673930000000004],[-73.682997999999998,4.4673400000000001],[-73.683001000000004,4.4672520000000002],[-73.682998999999995,4.4672020000000003],[-73.683001000000004,4.4671099999999999],[-73.682998999999995,4.4670629999999996],[-73.682991999999999,4.467015],[-73.682984000000005,4.4669679999999996],[-73.682970999999995,4.4669230000000004],[-73.682963999999998,4.4668780000000003],[-73.682957000000002,4.4667880000000002],[-73.682963999999998,4.4667000000000003],[-73.682969,4.4666170000000003],[-73.682948999999994,4.4665499999999998],[-73.682896999999997,4.466488],[-73.682834,4.466418],[-73.682801999999995,4.4663779999999997],[-73.682772,4.4663360000000001],[-73.682744,4.4662980000000001],[-73.682716999999997,4.4662550000000003],[-73.682694999999995,4.4661720000000003],[-73.682687999999999,4.4660869999999999],[-73.682668000000007,4.4660070000000003],[-73.682625999999999,4.4659800000000001],[-73.682551000000004,4.4659380000000004],[-73.682471000000007,4.4658930000000003],[-73.682421000000005,4.4658680000000004],[-73.682373999999996,4.46584],[-73.682332000000002,4.465808],[-73.682293999999999,4.4657710000000002],[-73.682264000000004,4.4657289999999996],[-73.682237000000001,4.4656909999999996],[-73.682207000000005,4.4656560000000001],[-73.682174000000003,4.4655860000000001],[-73.682143999999994,4.4655139999999998],[-73.682122000000007,4.4654309999999997],[-73.682102,4.4653530000000003],[-73.682079000000002,4.4652799999999999],[-73.682034000000002,4.4652269999999996],[-73.681971000000004,4.4652139999999996],[-73.681898000000004,4.465249],[-73.681845999999993,4.4652659999999997],[-73.681793999999996,4.4652839999999996],[-73.681746000000004,4.4652940000000001],[-73.681696000000002,4.4652919999999998],[-73.681640999999999,4.4652890000000003],[-73.681593000000007,4.4652770000000004],[-73.681545999999997,4.4652599999999998],[-73.681498000000005,4.4652450000000004],[-73.681410999999997,4.4652349999999998],[-73.681360999999995,4.4652380000000003],[-73.681314,4.4652430000000001],[-73.681230999999997,4.4652479999999999],[-73.681185999999997,4.4652560000000001],[-73.681140999999997,4.4652630000000002],[-73.681094000000002,4.4652649999999996],[-73.681042000000005,4.4652599999999998],[-73.680965,4.4652050000000001],[-73.680932999999996,4.4651269999999998],[-73.680935000000005,4.4650800000000004],[-73.680940000000007,4.4650319999999999],[-73.680957000000006,4.4649850000000004],[-73.680982,4.4649349999999997],[-73.681009000000003,4.4648870000000001],[-73.681049000000002,4.4648539999999999],[-73.681081000000006,4.4648139999999996],[-73.681128999999999,4.4647969999999999],[-73.681156000000001,4.4647449999999997],[-73.681184000000002,4.4646970000000001],[-73.681206000000003,4.4646420000000004],[-73.681218000000001,4.4645900000000003],[-73.681229999999999,4.4645419999999998],[-73.681241999999997,4.4644940000000002],[-73.681264999999996,4.4644060000000003],[-73.681268000000003,4.4643540000000002],[-73.681264999999996,4.4642989999999996],[-73.681264999999996,4.4642460000000002],[-73.681269999999998,4.4641979999999997],[-73.681259999999995,4.464143],[-73.681259999999995,4.4640950000000004],[-73.681257000000002,4.4640420000000001],[-73.681257000000002,4.4639889999999998],[-73.681254999999993,4.4639360000000003],[-73.681241999999997,4.4638790000000004],[-73.681236999999996,4.4638260000000001],[-73.681231999999994,4.4637760000000002],[-73.681229999999999,4.4637279999999997],[-73.681227000000007,4.4636810000000002],[-73.681207000000001,4.4635959999999999],[-73.681191999999996,4.4635280000000002],[-73.681173999999999,4.4634859999999996],[-73.681151,4.4634460000000002],[-73.681099000000003,4.4633729999999998],[-73.681045999999995,4.4633010000000004],[-73.680981000000003,4.4632389999999997],[-73.680913000000004,4.4632009999999998],[-73.680845000000005,4.4631790000000002],[-73.680792999999994,4.4631920000000003],[-73.680743000000007,4.4632120000000004],[-73.680693000000005,4.4632399999999999],[-73.68065,4.463273],[-73.680616999999998,4.4633079999999996],[-73.680593999999999,4.4633479999999999],[-73.680565999999999,4.4634200000000002],[-73.680543,4.4634919999999996],[-73.680515,4.4635720000000001],[-73.680499999999995,4.4636149999999999],[-73.680454999999995,4.463692],[-73.680408,4.4637539999999998],[-73.680346,4.4638070000000001],[-73.680268999999996,4.4638419999999996],[-73.680186000000006,4.4638689999999999],[-73.680096000000006,4.4638809999999998],[-73.680048999999997,4.4638790000000004],[-73.680002000000002,4.4638689999999999],[-73.679972000000006,4.463832],[-73.679948999999993,4.4637919999999998],[-73.679924,4.463705],[-73.679920999999993,4.4636550000000002],[-73.679925999999995,4.4636069999999997],[-73.679946000000001,4.4635249999999997],[-73.679953999999995,4.4634429999999998],[-73.679944000000006,4.4633580000000004],[-73.679925999999995,4.463273],[-73.679912999999999,4.463228],[-73.679890999999998,4.4631429999999996],[-73.679852999999994,4.4630609999999997],[-73.679789999999997,4.4630039999999997],[-73.679760000000002,4.4629690000000002],[-73.679716999999997,4.4629519999999996],[-73.679674000000006,4.4629370000000002],[-73.679601000000005,4.4628949999999996],[-73.679524000000001,4.4628569999999996],[-73.679436999999993,4.462847],[-73.679389,4.4628620000000003],[-73.679309000000003,4.4628940000000004],[-73.679264000000003,4.462917],[-73.679210999999995,4.4629370000000002],[-73.679156000000006,4.4629570000000003],[-73.679102999999998,4.4629799999999999],[-73.679051000000001,4.4630049999999999],[-73.679002999999994,4.463025],[-73.678955000000002,4.4630419999999997],[-73.678870000000003,4.4630539999999996],[-73.678804999999997,4.4630239999999999],[-73.678773000000007,4.4629490000000001],[-73.678736000000001,4.4628810000000003],[-73.678723000000005,4.4628259999999997],[-73.678713000000002,4.462771],[-73.678675999999996,4.4627359999999996],[-73.678612999999999,4.4627059999999998],[-73.678533000000002,4.4626859999999997],[-73.678449999999998,4.462663],[-73.678380000000004,4.4626279999999996],[-73.678317000000007,4.4625880000000002],[-73.678257000000002,4.4625329999999996],[-73.678207,4.4624800000000002],[-73.678156999999999,4.4624069999999998],[-73.678118999999995,4.4623369999999998],[-73.678071000000003,4.4622999999999999],[-73.678050999999996,4.4622200000000003],[-73.678023999999994,4.4621529999999998],[-73.677971999999997,4.4620930000000003],[-73.67792,4.4620329999999999],[-73.677859999999995,4.4619910000000003],[-73.677788000000007,4.4619580000000001],[-73.677735999999996,4.4619400000000002],[-73.677685999999994,4.4619229999999996],[-73.677636000000007,4.4619080000000002],[-73.677583999999996,4.4618960000000003],[-73.677521999999996,4.4618859999999998],[-73.677466999999993,4.4618859999999998],[-73.677409999999995,4.4618739999999999],[-73.677347999999995,4.4618589999999996],[-73.677297999999993,4.4618539999999998],[-73.677252999999993,4.4618460000000004],[-73.677166,4.4618159999999998],[-73.677122999999995,4.4617990000000001],[-73.677080000000004,4.4617789999999999],[-73.677031999999997,4.4617589999999998],[-73.676979000000003,4.4617370000000003],[-73.676924,4.4617139999999997],[-73.676880999999995,4.4616860000000003],[-73.676843000000005,4.4616530000000001],[-73.676800999999998,4.4616179999999996],[-73.676767999999996,4.4615749999999998],[-73.676738,4.4615299999999998],[-73.676710999999997,4.4614849999999997],[-73.676687999999999,4.4614380000000002],[-73.676665,4.4613930000000002],[-73.676637999999997,4.4613509999999996],[-73.676613000000003,4.4613060000000004],[-73.676580999999999,4.4612679999999996],[-73.676546000000002,4.4612350000000003],[-73.676507999999998,4.4612030000000003],[-73.676466000000005,4.4611710000000002],[-73.676423999999997,4.461138],[-73.676378999999997,4.4611029999999996],[-73.676338999999999,4.4610659999999998],[-73.676300999999995,4.4610240000000001],[-73.676281000000003,4.4609769999999997],[-73.676254,4.4609399999999999],[-73.676233999999994,4.4608970000000001],[-73.676220999999998,4.4608049999999997],[-73.676220999999998,4.4607530000000004],[-73.676224000000005,4.4607029999999996],[-73.676229000000006,4.460655],[-73.676238999999995,4.4606070000000004],[-73.676250999999993,4.4605620000000004],[-73.676263000000006,4.460515],[-73.676275000000004,4.4604679999999997],[-73.676332000000002,4.4603929999999998],[-73.676351999999994,4.4603479999999998],[-73.676351999999994,4.4602930000000001],[-73.676356999999996,4.4602430000000002],[-73.676344999999998,4.4601980000000001],[-73.676365000000004,4.4601280000000001],[-73.676383000000001,4.4600710000000001],[-73.676384999999996,4.4600090000000003],[-73.676372999999998,4.4599359999999999],[-73.676362999999995,4.459873],[-73.676361,4.4598129999999996],[-73.676355999999998,4.4597509999999998],[-73.676350999999997,4.4597009999999999],[-73.676345999999995,4.459638],[-73.676333999999997,4.459581],[-73.676316,4.4595209999999996],[-73.676281000000003,4.4594560000000003],[-73.676267999999993,4.459409],[-73.676237999999998,4.4593639999999999],[-73.676303000000004,4.4593819999999997],[-73.676270000000002,4.4594139999999998],[-73.676298000000003,4.4593790000000002],[-73.676291000000006,4.4593319999999999],[-73.676288,4.4592799999999997],[-73.676293000000001,4.4592330000000002],[-73.676265999999998,4.459193],[-73.676254,4.4591430000000001],[-73.676260999999997,4.4590899999999998],[-73.676276000000001,4.4590399999999999],[-73.676265999999998,4.4589949999999998],[-73.676260999999997,4.4589449999999999],[-73.676263000000006,4.4588950000000001],[-73.676260999999997,4.4588419999999998],[-73.676242999999999,4.4587899999999996],[-73.676220999999998,4.4587399999999997],[-73.676210999999995,4.4586920000000001],[-73.676196000000004,4.4586350000000001],[-73.676184000000006,4.4585869999999996],[-73.676174000000003,4.458539],[-73.676169000000002,4.458494],[-73.676143999999994,4.4584520000000003],[-73.676103999999995,4.4584190000000001],[-73.676066000000006,4.4583919999999999],[-73.676021000000006,4.458367],[-73.675989000000001,4.4583339999999998],[-73.675954000000004,4.4583009999999996],[-73.675918999999993,4.4582689999999996],[-73.675897000000006,4.4582259999999998],[-73.675894,4.4581710000000001],[-73.675900999999996,4.4581229999999996],[-73.675898000000004,4.4580679999999999],[-73.675890999999993,4.4580229999999998],[-73.675854000000001,4.4579810000000002],[-73.675836000000004,4.4579360000000001],[-73.675813000000005,4.4578959999999999],[-73.675770999999997,4.4578680000000004],[-73.675713999999999,4.4578280000000001],[-73.675668999999999,4.4578110000000004],[-73.675653999999994,4.457973],[-73.675742,4.4578230000000003],[-73.675759999999997,4.4578680000000004]]},"properties":{"FID":0,"Id":0,"Name":"Reserva Las Palmas - San Juanito","Descript":"Carretera","Type":"TRKPT"}},{"type":"Feature","id":1,"geometry":{"type":"LineString","coordinates":[[-73.644647000000006,4.5117900000000004],[-73.644613000000007,4.5117580000000004],[-73.644621000000001,4.5117010000000004],[-73.644627999999997,4.5116440000000004],[-73.644644999999997,4.5115959999999999],[-73.644649999999999,4.5115460000000001],[-73.644662999999994,4.511501],[-73.644665000000003,4.5114530000000004],[-73.644687000000005,4.5114099999999997],[-73.644724999999994,4.5113770000000004],[-73.644712999999996,4.5113300000000001],[-73.644735999999995,4.5112870000000003],[-73.644734,4.5112350000000001],[-73.644718999999995,4.5111869999999996],[-73.644727000000003,4.5111400000000001],[-73.644706999999997,4.511088],[-73.644701999999995,4.5110409999999996],[-73.644661999999997,4.5110659999999996],[-73.644638999999998,4.5110260000000002],[-73.644606999999993,4.5109859999999999],[-73.644561999999993,4.5109589999999997],[-73.644554999999997,4.5109139999999996],[-73.644559999999998,4.5108620000000004],[-73.644542999999999,4.5108139999999999],[-73.644560999999996,4.5107609999999996],[-73.644598000000002,4.5107280000000003],[-73.644644999999997,4.5107030000000004],[-73.644665000000003,4.510656],[-73.644670000000005,4.5106029999999997],[-73.644660000000002,4.5105510000000004],[-73.644655,4.5105060000000003],[-73.644658000000007,4.5104610000000003],[-73.644658000000007,4.5104129999999998],[-73.644622999999996,4.5103809999999998],[-73.644594999999995,4.5103439999999999],[-73.644565,4.5103070000000001],[-73.644523000000007,4.5102849999999997],[-73.644492999999997,4.5102479999999998],[-73.644451000000004,4.5102229999999999],[-73.644418999999999,4.5101880000000003],[-73.644377000000006,4.5101459999999998],[-73.644360000000006,4.5100930000000004],[-73.644351999999998,4.5100480000000003],[-73.644319999999993,4.510008],[-73.644282000000004,4.5099710000000002],[-73.644246999999993,4.5099309999999999],[-73.644225000000006,4.5098839999999996],[-73.644194999999996,4.5098440000000002],[-73.644180000000006,4.5098010000000004],[-73.644166999999996,4.5097509999999996],[-73.644120000000001,4.5097310000000004],[-73.644063000000003,4.5097240000000003],[-73.644020999999995,4.5096970000000001],[-73.643962999999999,4.5096949999999998],[-73.643912999999998,4.5096949999999998],[-73.643867999999998,4.5096869999999996],[-73.643820000000005,4.5096800000000004],[-73.643771999999998,4.5096730000000003],[-73.643882000000005,4.5096530000000001],[-73.643932000000007,4.5096410000000002],[-73.643979000000002,4.5096259999999999],[-73.643951999999999,4.5095809999999998],[-73.643934999999999,4.5095359999999998],[-73.643952999999996,4.5094880000000002],[-73.643947999999995,4.509436],[-73.643890999999996,4.5094260000000004],[-73.643867999999998,4.5093839999999998],[-73.643822999999998,4.509404],[-73.643775000000005,4.5093969999999999],[-73.643737000000002,4.5093420000000002],[-73.643752000000006,4.5092869999999996],[-73.643752000000006,4.509239],[-73.643737000000002,4.5091910000000004],[-73.643733999999995,4.509144],[-73.643724000000006,4.5090960000000004],[-73.643728999999993,4.5090440000000003],[-73.643743999999998,4.5089920000000001],[-73.643773999999993,4.5089499999999996],[-73.643799000000001,4.5089119999999996],[-73.643831000000006,4.508864],[-73.643833999999998,4.5088189999999999],[-73.643809000000005,4.5087619999999999],[-73.643797000000006,4.5087169999999999],[-73.643778999999995,4.5086740000000001],[-73.643766999999997,4.5086269999999997],[-73.643749,4.5085819999999996],[-73.643778999999995,4.50854],[-73.643760999999998,4.5084920000000004],[-73.643749,4.5084390000000001],[-73.643741000000006,4.5083909999999996],[-73.643718000000007,4.5083359999999999],[-73.643715,4.5082839999999997],[-73.643690000000007,4.5082420000000001],[-73.643697000000003,4.5081870000000004],[-73.643697000000003,4.5081350000000002],[-73.643688999999995,4.5080850000000003],[-73.643665999999996,4.5080330000000002],[-73.643624000000003,4.5079979999999997],[-73.643615999999994,4.5079510000000003],[-73.643642999999997,4.5079079999999996],[-73.643654999999995,4.5078579999999997],[-73.643635000000003,4.507816],[-73.643581999999995,4.507809],[-73.643576999999993,4.5077639999999999],[-73.643613999999999,4.5077290000000003],[-73.643597,4.5076840000000002],[-73.643558999999996,4.5076510000000001],[-73.643516000000005,4.5076330000000002],[-73.643468999999996,4.5076330000000002],[-73.643418999999994,4.5076409999999996],[-73.643369000000007,4.5076280000000004],[-73.643361999999996,4.5075779999999996],[-73.643375000000006,4.5075329999999996],[-73.643417999999997,4.5075180000000001],[-73.643422999999999,4.5074649999999998],[-73.643457999999995,4.5074249999999996],[-73.643488000000005,4.5073850000000002],[-73.643493000000007,4.5073319999999999],[-73.643516000000005,4.5072890000000001],[-73.643574000000001,4.5072219999999996],[-73.643575999999996,4.5071750000000002],[-73.643587999999994,4.5071300000000001],[-73.643608,4.5070819999999996],[-73.643640000000005,4.5070439999999996],[-73.643658000000002,4.5069369999999997],[-73.643642999999997,4.5068820000000001],[-73.643744999999996,4.5067640000000004],[-73.643810000000002,4.5067389999999996],[-73.643827000000002,4.5066959999999998],[-73.643879999999996,4.5066730000000002],[-73.643927000000005,4.5066499999999996],[-73.643936999999994,4.506583],[-73.643960000000007,4.5064010000000003],[-73.643990000000002,4.5063579999999996],[-73.644019999999998,4.506316],[-73.644037999999995,4.5062730000000002],[-73.644011000000006,4.5062329999999999],[-73.644018000000003,4.506176],[-73.644024999999999,4.506119],[-73.644012000000004,4.5060760000000002],[-73.643994000000006,4.5060310000000001],[-73.643974,4.5059889999999996],[-73.643970999999993,4.5059389999999997],[-73.643970999999993,4.5058889999999998],[-73.643953999999994,4.5058420000000003],[-73.643953999999994,4.5057970000000003],[-73.643967000000004,4.5057400000000003],[-73.643957,4.5056950000000002],[-73.643927000000005,4.5056529999999997],[-73.643936999999994,4.5056029999999998],[-73.643951999999999,4.5055579999999997],[-73.643949000000006,4.5055129999999997],[-73.643957,4.5054559999999997],[-73.643964999999994,4.5054040000000004],[-73.643979999999999,4.5053470000000004],[-73.643992999999995,4.5053020000000004],[-73.644023000000004,4.5052669999999999],[-73.644064999999998,4.5052399999999997],[-73.644053,4.5051600000000001],[-73.644040000000004,4.5051100000000002],[-73.644030000000001,4.5050650000000001],[-73.644007999999999,4.5050169999999996],[-73.643979999999999,4.5049700000000001],[-73.644013000000001,4.5049279999999996],[-73.644047999999998,4.5048880000000002],[-73.644063000000003,4.5048409999999999],[-73.644090000000006,4.5048009999999996],[-73.644107000000005,4.5047509999999997],[-73.644133999999994,4.5047129999999997],[-73.644152000000005,4.5046650000000001],[-73.644129000000007,4.504607],[-73.644107000000005,4.5045440000000001],[-73.644088999999994,4.5044839999999997],[-73.644081999999997,4.5044389999999996],[-73.644069999999999,4.5043920000000002],[-73.644062000000005,4.5043470000000001],[-73.644062000000005,4.504302],[-73.644067000000007,4.5042439999999999],[-73.644069999999999,4.5041919999999998],[-73.644049999999993,4.504149],[-73.644036999999997,4.5040909999999998],[-73.644030000000001,4.5040440000000004],[-73.644045000000006,4.5040009999999997],[-73.644037999999995,4.5039559999999996],[-73.644030999999998,4.5039090000000002],[-73.644008999999997,4.5038559999999999],[-73.644012000000004,4.5037989999999999],[-73.644013999999999,4.503749],[-73.644019,4.5037039999999999],[-73.644039000000006,4.503654],[-73.644041999999999,4.5036060000000004],[-73.644040000000004,4.5035489999999996],[-73.644032999999993,4.5034970000000003],[-73.644023000000004,4.5034489999999998],[-73.644018000000003,4.5033909999999997],[-73.644007999999999,4.5033409999999998],[-73.643996000000001,4.5032940000000004],[-73.643980999999997,4.503247],[-73.643968999999998,4.5031920000000003],[-73.643961000000004,4.5031369999999997],[-73.643951000000001,4.5030840000000003],[-73.643949000000006,4.503037],[-73.644174000000007,4.5028639999999998],[-73.644227000000001,4.502847],[-73.644282000000004,4.5028300000000003],[-73.644324999999995,4.5028030000000001],[-73.644378000000003,4.5027609999999996],[-73.644416000000007,4.5027229999999996],[-73.644480999999999,4.5027109999999997],[-73.644525999999999,4.5026809999999999],[-73.644577999999996,4.5026339999999996],[-73.644622999999996,4.5026190000000001],[-73.644677999999999,4.502561],[-73.644739999999999,4.5025409999999999],[-73.64479,4.5025009999999996],[-73.644842999999995,4.5024879999999996],[-73.644895000000005,4.5024550000000003],[-73.644908000000001,4.5024100000000002],[-73.644942999999998,4.5023479999999996],[-73.644968000000006,4.502281],[-73.644970999999998,4.5022339999999996],[-73.644992999999999,4.5021659999999999],[-73.645003000000003,4.5021009999999997],[-73.644996000000006,4.502033],[-73.644986000000003,4.501976],[-73.644991000000005,4.501919],[-73.644977999999995,4.5018539999999998],[-73.644955999999993,4.5017839999999998],[-73.644955999999993,4.5017209999999999],[-73.644941000000003,4.5016480000000003],[-73.644919000000002,4.5015780000000003],[-73.644886999999997,4.5014830000000003],[-73.644869,4.5014180000000001],[-73.644841,4.5013730000000001],[-73.644830999999996,4.5013199999999998],[-73.644842999999995,4.501258],[-73.644842213050268,4.5012355719326216]]},"properties":{"FID":1,"Id":0,"Name":"Reserva Las Palmas - San Juanito","Descript":"Camino","Type":"TRKPT"}}]}